{
  "norad_id": 65510,
  "name": "STARLINK-35122",
  "history": [
    {
      "epoch": "2026-04-14T16:34:01.903584Z",
      "apogee_km": 475.93458430834835,
      "perigee_km": 474.5337552412466,
      "latitude_deg": -4.3488841962250836e-05,
      "longitude_deg": 12.281432839581745,
      "height_km": 475.9692557713434,
      "semi_major_axis_km": 6853.371169774798,
      "eccentricity": 0.0001022,
      "inclination_deg": 53.158,
      "raan_deg": 103.6525,
      "arg_perigee_deg": 76.5298,
      "mean_anomaly_deg": 283.5816,
      "mean_motion_rev_day": 15.30193603
    },
    {
      "epoch": "2026-04-15T11:22:40.210464Z",
      "apogee_km": 476.0144997369507,
      "perigee_km": 474.4034151692731,
      "latitude_deg": -3.2516215386175006e-05,
      "longitude_deg": 85.7085048644075,
      "height_km": 476.0111043259473,
      "semi_major_axis_km": 6853.345957453112,
      "eccentricity": 0.00011754,
      "inclination_deg": 53.158,
      "raan_deg": 100.0117,
      "arg_perigee_deg": 83.1655,
      "mean_anomaly_deg": 276.9479,
      "mean_motion_rev_day": 15.30202047
    },
    {
      "epoch": "2026-04-16T06:11:18.454272Z",
      "apogee_km": 476.07633572081977,
      "perigee_km": 474.3451800771745,
      "latitude_deg": -1.0874624654226088e-05,
      "longitude_deg": 159.13574848237926,
      "height_km": 476.05510160217244,
      "semi_major_axis_km": 6853.347757898997,
      "eccentricity": 0.0001263,
      "inclination_deg": 53.1582,
      "raan_deg": 96.3708,
      "arg_perigee_deg": 86.4528,
      "mean_anomaly_deg": 273.6617,
      "mean_motion_rev_day": 15.30201444
    },
    {
      "epoch": "2026-04-17T08:50:12.695136Z",
      "apogee_km": 475.7688400839752,
      "perigee_km": 474.5985670406344,
      "latitude_deg": -4.8293744049412346e-05,
      "longitude_deg": 113.15770792321263,
      "height_km": 475.83862609865395,
      "semi_major_axis_km": 6853.3207035623045,
      "eccentricity": 8.538e-05,
      "inclination_deg": 53.1596,
      "raan_deg": 91.2132,
      "arg_perigee_deg": 65.378,
      "mean_anomaly_deg": 294.7309,
      "mean_motion_rev_day": 15.30210505
    },
    {
      "epoch": "2026-04-18T08:21:00.799488Z",
      "apogee_km": 476.0151694794131,
      "perigee_km": 474.3910649384379,
      "latitude_deg": 4.58271415778557e-05,
      "longitude_deg": 114.93998449892229,
      "height_km": 476.1285565643075,
      "semi_major_axis_km": 6853.340117208925,
      "eccentricity": 0.00011849,
      "inclination_deg": 53.1599,
      "raan_deg": 86.6615,
      "arg_perigee_deg": 91.924,
      "mean_anomaly_deg": 268.1897,
      "mean_motion_rev_day": 15.30204003
    },
    {
      "epoch": "2026-04-19T07:51:48.454560Z",
      "apogee_km": 476.1147083470878,
      "perigee_km": 474.29021231595834,
      "latitude_deg": -5.5122191331729274e-05,
      "longitude_deg": 116.72609171781461,
      "height_km": 476.02314156219995,
      "semi_major_axis_km": 6853.339460331523,
      "eccentricity": 0.00013311,
      "inclination_deg": 53.1599,
      "raan_deg": 82.1119,
      "arg_perigee_deg": 85.1381,
      "mean_anomaly_deg": 274.9771,
      "mean_motion_rev_day": 15.30204223
    },
    {
      "epoch": "2026-04-20T04:14:30.472512Z",
      "apogee_km": 475.9398608290767,
      "perigee_km": 474.5140869879442,
      "latitude_deg": -5.5035152100972216e-05,
      "longitude_deg": 166.2689071312305,
      "height_km": 476.2293450581472,
      "semi_major_axis_km": 6853.36397390851,
      "eccentricity": 0.00010402,
      "inclination_deg": 53.1609,
      "raan_deg": 78.1667,
      "arg_perigee_deg": 98.3779,
      "mean_anomaly_deg": 261.7339,
      "mean_motion_rev_day": 15.30196013
    },
    {
      "epoch": "2026-04-21T20:59:53.331648Z",
      "apogee_km": 476.20343622850305,
      "perigee_km": 474.22144756990565,
      "latitude_deg": 1.8146555397451535e-05,
      "longitude_deg": -94.6382926674901,
      "height_km": 476.44555549621515,
      "semi_major_axis_km": 6853.349441899204,
      "eccentricity": 0.0001446,
      "inclination_deg": 53.1616,
      "raan_deg": 70.2785,
      "arg_perigee_deg": 109.7578,
      "mean_anomaly_deg": 250.3579,
      "mean_motion_rev_day": 15.3020088
    },
    {
      "epoch": "2026-04-22T20:30:41.536224Z",
      "apogee_km": 476.2369728219501,
      "perigee_km": 474.1850804227797,
      "latitude_deg": 2.3539435294533457e-05,
      "longitude_deg": -92.8528040749611,
      "height_km": 476.19526043165877,
      "semi_major_axis_km": 6853.348026622365,
      "eccentricity": 0.0001497,
      "inclination_deg": 53.1621,
      "raan_deg": 65.7305,
      "arg_perigee_deg": 94.8222,
      "mean_anomaly_deg": 265.295,
      "mean_motion_rev_day": 15.30201354
    },
    {
      "epoch": "2026-04-23T13:45:16.646976Z",
      "apogee_km": 476.1509908853086,
      "perigee_km": 474.255356993197,
      "latitude_deg": 8.060085614952727e-05,
      "longitude_deg": 4.4559938757883115,
      "height_km": 476.0544390623789,
      "semi_major_axis_km": 6853.340173939253,
      "eccentricity": 0.0001383,
      "inclination_deg": 53.1601,
      "raan_deg": 62.3937,
      "arg_perigee_deg": 87.1784,
      "mean_anomaly_deg": 272.9376,
      "mean_motion_rev_day": 15.30203984
    },
    {
      "epoch": "2026-04-24T20:00:01.999008Z",
      "apogee_km": 466.2694876785772,
      "perigee_km": 464.2383692510084,
      "latitude_deg": 47.63612922296786,
      "longitude_deg": 28.87500543862893,
      "height_km": 469.5821618413661,
      "semi_major_axis_km": 6843.3909284647925,
      "eccentricity": 0.0001484,
      "inclination_deg": 53.1597,
      "raan_deg": 56.5259,
      "arg_perigee_deg": 92.4425,
      "mean_anomaly_deg": 20.4651,
      "mean_motion_rev_day": 15.33542221
    },
    {
      "epoch": "2026-04-25T20:00:01.000224Z",
      "apogee_km": 466.3101560124551,
      "perigee_km": 464.27355158556384,
      "latitude_deg": -42.15575488134824,
      "longitude_deg": 120.42551828676983,
      "height_km": 480.16020900387474,
      "semi_major_axis_km": 6843.428853799009,
      "eccentricity": 0.0001488,
      "inclination_deg": 53.1592,
      "raan_deg": 51.8576,
      "arg_perigee_deg": 93.9088,
      "mean_anomaly_deg": 142.7364,
      "mean_motion_rev_day": 15.33529473
    },
    {
      "epoch": "2026-04-26T22:00:00.999936Z",
      "apogee_km": 466.05942935103576,
      "perigee_km": 464.34599395403166,
      "latitude_deg": 51.986714088136715,
      "longitude_deg": -30.515300785302536,
      "height_km": 470.62046517205357,
      "semi_major_axis_km": 6843.339711652533,
      "eccentricity": 0.00012519,
      "inclination_deg": 53.1592,
      "raan_deg": 46.8005,
      "arg_perigee_deg": 96.5376,
      "mean_anomaly_deg": 4.2196,
      "mean_motion_rev_day": 15.33559437
    },
    {
      "epoch": "2026-04-27T20:00:03.000384Z",
      "apogee_km": 466.89039248205154,
      "perigee_km": 464.57305853159414,
      "latitude_deg": 41.424210489740865,
      "longitude_deg": 25.588616893643692,
      "height_km": 469.63603679826747,
      "semi_major_axis_km": 6843.868725506823,
      "eccentricity": 0.0001693,
      "inclination_deg": 53.1597,
      "raan_deg": 42.521,
      "arg_perigee_deg": 33.911,
      "mean_anomaly_deg": 90.5282,
      "mean_motion_rev_day": 15.3338163
    },
    {
      "epoch": "2026-04-28T20:28:44.093568Z",
      "apogee_km": 464.6583167494673,
      "perigee_km": 461.94363416080705,
      "latitude_deg": 2.119535236466313e-05,
      "longitude_deg": -126.25049261056182,
      "height_km": 464.6558037034765,
      "semi_major_axis_km": 6841.437975455137,
      "eccentricity": 0.0001984,
      "inclination_deg": 53.1609,
      "raan_deg": 37.756,
      "arg_perigee_deg": 109.6283,
      "mean_anomaly_deg": 250.4934,
      "mean_motion_rev_day": 15.34198914
    },
    {
      "epoch": "2026-04-29T20:00:01.999008Z",
      "apogee_km": 463.7318456339599,
      "perigee_km": 461.57015662560207,
      "latitude_deg": 13.445486400877313,
      "longitude_deg": -114.36322972191226,
      "height_km": 462.6372209690569,
      "semi_major_axis_km": 6840.78800112978,
      "eccentricity": 0.000158,
      "inclination_deg": 53.1609,
      "raan_deg": 33.1741,
      "arg_perigee_deg": 98.2516,
      "mean_anomaly_deg": 278.6514,
      "mean_motion_rev_day": 15.34417576
    },
    {
      "epoch": "2026-04-30T11:33:36.188640Z",
      "apogee_km": 464.043460741932,
      "perigee_km": 461.1434014829656,
      "latitude_deg": -1.3800246894066814e-05,
      "longitude_deg": -1.6845866357080885,
      "height_km": 463.4206632898557,
      "semi_major_axis_km": 6840.730431112448,
      "eccentricity": 0.00021197,
      "inclination_deg": 53.1615,
      "raan_deg": 30.144,
      "arg_perigee_deg": 87.1756,
      "mean_anomaly_deg": 272.9489,
      "mean_motion_rev_day": 15.34436946
    },
    {
      "epoch": "2026-05-02T10:27:28.766304Z",
      "apogee_km": 463.30723802628654,
      "perigee_km": 462.1607080512049,
      "latitude_deg": -6.124696430414156e-05,
      "longitude_deg": 3.784071974250014,
      "height_km": 463.77383137754225,
      "semi_major_axis_km": 6840.870973038745,
      "eccentricity": 8.38e-05,
      "inclination_deg": 53.1622,
      "raan_deg": 21.0078,
      "arg_perigee_deg": 104.0627,
      "mean_anomaly_deg": 256.0468,
      "mean_motion_rev_day": 15.3438966
    },
    {
      "epoch": "2026-05-03T20:50:58.863840Z",
      "apogee_km": 463.38522945216846,
      "perigee_km": 461.94455657349954,
      "latitude_deg": 1.3031648685782443e-05,
      "longitude_deg": -160.20199963419861,
      "height_km": 463.77899996513304,
      "semi_major_axis_km": 6840.801893012834,
      "eccentricity": 0.0001053,
      "inclination_deg": 53.1606,
      "raan_deg": 14.3095,
      "arg_perigee_deg": 107.2802,
      "mean_anomaly_deg": 252.8316,
      "mean_motion_rev_day": 15.34412902
    }
  ]
}